[{"OBJECT_NAME":"LEMUR-2-SQUIRRELCOMM","OBJECT_ID":"2024-149DQ","EPOCH":"2026-03-09T21:26:31.466400","MEAN_MOTION":15.05887962,"ECCENTRICITY":0.00061012,"INCLINATION":97.6754,"RA_OF_ASC_NODE":150.1976,"ARG_OF_PERICENTER":42.3481,"MEAN_ANOMALY":317.8216,"EPHEMERIS_TYPE":0,"CLASSIFICATION_TYPE":"U","NORAD_CAT_ID":60578,"ELEMENT_SET_NO":999,"REV_AT_EPOCH":8545,"BSTAR":0.00060830109,"MEAN_MOTION_DOT":8.786e-5,"MEAN_MOTION_DDOT":0},{"OBJECT_NAME":"STARLINK-35105","OBJECT_ID":"2025-200Z","EPOCH":"2026-03-09T18:14:27.829248","MEAN_MOTION":15.05647467,"ECCENTRICITY":1.624e-5,"INCLINATION":97.6018,"RA_OF_ASC_NODE":139.9027,"ARG_OF_PERICENTER":252.9895,"MEAN_ANOMALY":107.1314,"EPHEMERIS_TYPE":0,"CLASSIFICATION_TYPE":"U","NORAD_CAT_ID":65543,"ELEMENT_SET_NO":999,"REV_AT_EPOCH":2914,"BSTAR":0.0001230669,"MEAN_MOTION_DOT":1.715e-5,"MEAN_MOTION_DDOT":0}]
